[{"OBJECT_NAME":"ORBCOMM FM04","OBJECT_ID":"1998-007C","EPOCH":"2026-03-09T14:44:15.821664","MEAN_MOTION":14.35529153,"ECCENTRICITY":0.0038795,"INCLINATION":107.9614,"RA_OF_ASC_NODE":324.5497,"ARG_OF_PERICENTER":142.9338,"MEAN_ANOMALY":217.4493,"EPHEMERIS_TYPE":0,"CLASSIFICATION_TYPE":"U","NORAD_CAT_ID":25159,"ELEMENT_SET_NO":999,"REV_AT_EPOCH":46230,"BSTAR":0.0004125,"MEAN_MOTION_DOT":1.067e-5,"MEAN_MOTION_DDOT":0},{"OBJECT_NAME":"CZ-6A R\/B","OBJECT_ID":"2024-058B","EPOCH":"2026-03-09T22:13:55.818336","MEAN_MOTION":14.28615253,"ECCENTRICITY":0.00794171,"INCLINATION":98.793,"RA_OF_ASC_NODE":95.0746,"ARG_OF_PERICENTER":84.7388,"MEAN_ANOMALY":276.2849,"EPHEMERIS_TYPE":0,"CLASSIFICATION_TYPE":"U","NORAD_CAT_ID":59344,"ELEMENT_SET_NO":999,"REV_AT_EPOCH":10179,"BSTAR":5.1164894e-5,"MEAN_MOTION_DOT":8.8e-7,"MEAN_MOTION_DDOT":0}]
